start=new Date('2023-07-01T00:00:00.000Z').valueOf();
sats=[{"TIME_SYSTEM":"UTC","CENTER_NAME":"EARTH","ECCENTRICITY":"0.00018320","EPHEMERIS_TYPE":"0","ARG_OF_PERICENTER":"268.7874","TLE_LINE1":"1 55490U 23015AT  23180.66332790  .00000649  00000-0  63121-4 0  9990","EPOCH":"2023-06-29T15:55:11.530560","TLE_LINE2":"2 55490  43.0041 285.6646 0001832 268.7874  91.2758 15.02539284 22409","MEAN_MOTION_DOT":"0.00000649","NORAD_CAT_ID":"55490","SITE":"AFETR","FILE":"3946028","PERIAPSIS":"557.801","MEAN_ANOMALY":"91.2758","INCLINATION":"43.0041","MEAN_MOTION":"15.02539284","MEAN_MOTION_DDOT":"0.0000000000000","OBJECT_TYPE":"PAYLOAD","PERIOD":"95.838","BSTAR":"0.00006312100000","OBJECT_ID":"2023-015AT","COUNTRY_CODE":"US","REV_AT_EPOCH":"2240","RCS_SIZE":"LARGE","CLASSIFICATION_TYPE":"U","RA_OF_ASC_NODE":"285.6646","MEAN_ELEMENT_THEORY":"SGP4","ELEMENT_SET_NO":"999","REF_FRAME":"TEME","APOAPSIS":"560.342","GP_ID":"234632170","SEMIMAJOR_AXIS":"6937.206","DECAY_DATE":null,"LAUNCH_DATE":"2023-02-02","OBJECT_NAME":"STARLINK-5373"},{"FILE":"3945393","SITE":"AFETR","MEAN_ANOMALY":"81.9273","PERIAPSIS":"558.177","TLE_LINE1":"1 55491U 23015AU  23179.93481079  .00000453  00000-0  48591-4 0  9991","ARG_OF_PERICENTER":"278.1420","ECCENTRICITY":"0.00013080","EPHEMERIS_TYPE":"0","TIME_SYSTEM":"UTC","CENTER_NAME":"EARTH","NORAD_CAT_ID":"55491","MEAN_MOTION_DOT":"0.00000453","TLE_LINE2":"2 55491  43.0019 263.6540 0001308 278.1420  81.9273 15.02535149 22778","EPOCH":"2023-06-28T22:26:07.652256","OBJECT_TYPE":"PAYLOAD","MEAN_MOTION_DDOT":"0.0000000000000","INCLINATION":"43.0019","MEAN_MOTION":"15.02535149","PERIOD":"95.838","CLASSIFICATION_TYPE":"U","RA_OF_ASC_NODE":"263.6540","COUNTRY_CODE":"US","OBJECT_ID":"2023-015AU","BSTAR":"0.00004859100000","REV_AT_EPOCH":"2277","RCS_SIZE":"LARGE","GP_ID":"234616417","DECAY_DATE":null,"SEMIMAJOR_AXIS":"6937.219","OBJECT_NAME":"STARLINK-5364","LAUNCH_DATE":"2023-02-02","MEAN_ELEMENT_THEORY":"SGP4","APOAPSIS":"559.992","REF_FRAME":"TEME","ELEMENT_SET_NO":"999"},{"MEAN_MOTION_DDOT":"0.0000000000000","MEAN_MOTION":"15.02538323","INCLINATION":"43.0023","OBJECT_TYPE":"PAYLOAD","PERIOD":"95.838","EPHEMERIS_TYPE":"0","ECCENTRICITY":"0.00014630","CENTER_NAME":"EARTH","TIME_SYSTEM":"UTC","TLE_LINE1":"1 55492U 23015AV  23180.33760239 -.00000642  00000-0 -32420-4 0  9992","ARG_OF_PERICENTER":"270.2199","TLE_LINE2":"2 55492  43.0023 287.5177 0001463 270.2199  89.8476 15.02538323 22356","EPOCH":"2023-06-29T08:06:08.846496","NORAD_CAT_ID":"55492","MEAN_MOTION_DOT":"-0.00000642","SITE":"AFETR","FILE":"3945663","MEAN_ANOMALY":"89.8476","PERIAPSIS":"558.059","MEAN_ELEMENT_THEORY":"SGP4","ELEMENT_SET_NO":"999","APOAPSIS":"560.089","REF_FRAME":"TEME","GP_ID":"234622536","DECAY_DATE":null,"SEMIMAJOR_AXIS":"6937.209","LAUNCH_DATE":"2023-02-02","OBJECT_NAME":"STARLINK-5013","OBJECT_ID":"2023-015AV","BSTAR":"-0.00003242000000","COUNTRY_CODE":"US","RCS_SIZE":"LARGE","REV_AT_EPOCH":"2235","CLASSIFICATION_TYPE":"U","RA_OF_ASC_NODE":"287.5177"},{"CLASSIFICATION_TYPE":"U","RA_OF_ASC_NODE":"287.4774","COUNTRY_CODE":"US","BSTAR":"0.00000938200000","OBJECT_ID":"2023-015AW","REV_AT_EPOCH":"2253","RCS_SIZE":"LARGE","GP_ID":"234623038","DECAY_DATE":null,"SEMIMAJOR_AXIS":"6937.217","OBJECT_NAME":"STARLINK-5362","LAUNCH_DATE":"2023-02-02","MEAN_ELEMENT_THEORY":"SGP4","REF_FRAME":"TEME","APOAPSIS":"559.966","ELEMENT_SET_NO":"999","FILE":"3945663","SITE":"AFETR","PERIAPSIS":"558.197","MEAN_ANOMALY":"88.2548","ARG_OF_PERICENTER":"271.8149","TLE_LINE1":"1 55493U 23015AW  23180.33205406 -.00000077  00000-0  93820-5 0  9996","CENTER_NAME":"EARTH","TIME_SYSTEM":"UTC","ECCENTRICITY":"0.00012750","EPHEMERIS_TYPE":"0","MEAN_MOTION_DOT":"-0.00000077","NORAD_CAT_ID":"55493","EPOCH":"2023-06-29T07:58:09.470784","TLE_LINE2":"2 55493  43.0032 287.4774 0001275 271.8149  88.2548 15.02535898 22539","OBJECT_TYPE":"PAYLOAD","MEAN_MOTION":"15.02535898","INCLINATION":"43.0032","MEAN_MOTION_DDOT":"0.0000000000000","PERIOD":"95.838"},{"EPOCH":"2023-06-29T22:00:00.999936","TLE_LINE2":"2 55494  43.0040 284.2524 0001553 274.0506  31.3717 15.01695189 22613","MEAN_MOTION_DOT":"0.00457898","NORAD_CAT_ID":"55494","CENTER_NAME":"EARTH","TIME_SYSTEM":"UTC","ECCENTRICITY":"0.00015530","EPHEMERIS_TYPE":"0","ARG_OF_PERICENTER":"274.0506","TLE_LINE1":"1 55494U 23015AX  23180.91667824  .00457898  00000-0  32788-1 0  9995","PERIAPSIS":"560.593","MEAN_ANOMALY":"31.3717","SITE":"AFETR","FILE":"3945896","PERIOD":"95.892","INCLINATION":"43.0040","MEAN_MOTION":"15.01695189","MEAN_MOTION_DDOT":"0.0000000000000","OBJECT_TYPE":"PAYLOAD","REV_AT_EPOCH":"2261","RCS_SIZE":"LARGE","BSTAR":"0.03278800000000","OBJECT_ID":"2023-015AX","COUNTRY_CODE":"US","RA_OF_ASC_NODE":"284.2524","CLASSIFICATION_TYPE":"U","ELEMENT_SET_NO":"999","REF_FRAME":"TEME","APOAPSIS":"562.749","MEAN_ELEMENT_THEORY":"SGP4","LAUNCH_DATE":"2023-02-02","OBJECT_NAME":"STARLINK-5344","GP_ID":"234628360","SEMIMAJOR_AXIS":"6939.806","DECAY_DATE":null},{"LAUNCH_DATE":"2023-02-02","OBJECT_NAME":"STARLINK-5100","GP_ID":"234627339","SEMIMAJOR_AXIS":"6937.220","DECAY_DATE":null,"ELEMENT_SET_NO":"999","APOAPSIS":"560.072","REF_FRAME":"TEME","MEAN_ELEMENT_THEORY":"SGP4","RA_OF_ASC_NODE":"260.0793","CLASSIFICATION_TYPE":"U","RCS_SIZE":"LARGE","REV_AT_EPOCH":"2270","OBJECT_ID":"2023-015AY","BSTAR":"-0.00000052706000","COUNTRY_CODE":"US","PERIOD":"95.838","MEAN_MOTION_DDOT":"0.0000000000000","MEAN_MOTION":"15.02534963","INCLINATION":"43.0024","OBJECT_TYPE":"PAYLOAD","MEAN_ANOMALY":"90.1437","PERIAPSIS":"558.098","SITE":"AFETR","FILE":"3945832","TLE_LINE2":"2 55495  43.0024 260.0793 0001423 269.9242  90.1437 15.02534963 22707","EPOCH":"2023-06-29T17:14:15.565344","NORAD_CAT_ID":"55495","MEAN_MOTION_DOT":"-0.00000211","ECCENTRICITY":"0.00014230","EPHEMERIS_TYPE":"0","TIME_SYSTEM":"UTC","CENTER_NAME":"EARTH","TLE_LINE1":"1 55495U 23015AY  23180.71823571 -.00000211  00000-0 -52706-6 0  9999","ARG_OF_PERICENTER":"269.9242"},{"CLASSIFICATION_TYPE":"U","RA_OF_ASC_NODE":"205.7359","COUNTRY_CODE":"US","BSTAR":"0.00060730000000","OBJECT_ID":"2023-015AZ","RCS_SIZE":"LARGE","REV_AT_EPOCH":"2360","SEMIMAJOR_AXIS":"6665.088","GP_ID":"234636340","DECAY_DATE":null,"OBJECT_NAME":"STARLINK-5139","LAUNCH_DATE":"2023-02-02","MEAN_ELEMENT_THEORY":"SGP4","REF_FRAME":"TEME","APOAPSIS":"295.086","ELEMENT_SET_NO":"999","FILE":"3946201","SITE":"AFETR","PERIAPSIS":"278.819","MEAN_ANOMALY":"164.8493","ARG_OF_PERICENTER":"85.9073","TLE_LINE1":"1 55496U 23015AZ  23181.91667824  .00251259  32817-4  60730-3 0  9996","TIME_SYSTEM":"UTC","CENTER_NAME":"EARTH","EPHEMERIS_TYPE":"0","ECCENTRICITY":"0.00122030","MEAN_MOTION_DOT":"0.00251259","NORAD_CAT_ID":"55496","EPOCH":"2023-06-30T22:00:00.999936","TLE_LINE2":"2 55496  42.9881 205.7359 0012203  85.9073 164.8493 15.95489491 23605","OBJECT_TYPE":"PAYLOAD","INCLINATION":"42.9881","MEAN_MOTION":"15.95489491","MEAN_MOTION_DDOT":"0.0000328170000","PERIOD":"90.254"},{"PERIOD":"95.837","MEAN_MOTION_DDOT":"0.0000000000000","MEAN_MOTION":"15.02545166","INCLINATION":"43.0040","OBJECT_TYPE":"PAYLOAD","MEAN_ANOMALY":"87.8251","PERIAPSIS":"557.930","SITE":"AFETR","FILE":"3945832","TLE_LINE2":"2 55497  43.0040 285.2625 0001619 272.2406  87.8251 15.02545166 22597","EPOCH":"2023-06-29T17:22:55.584480","NORAD_CAT_ID":"55497","MEAN_MOTION_DOT":"0.00001645","EPHEMERIS_TYPE":"0","ECCENTRICITY":"0.00016190","CENTER_NAME":"EARTH","TIME_SYSTEM":"UTC","TLE_LINE1":"1 55497U 23015BA  23180.72425445  .00001645  00000-0  13681-3 0  9996","ARG_OF_PERICENTER":"272.2406","LAUNCH_DATE":"2023-02-02","OBJECT_NAME":"STARLINK-5363","SEMIMAJOR_AXIS":"6937.188","GP_ID":"234626847","DECAY_DATE":null,"ELEMENT_SET_NO":"999","APOAPSIS":"560.176","REF_FRAME":"TEME","MEAN_ELEMENT_THEORY":"SGP4","RA_OF_ASC_NODE":"285.2625","CLASSIFICATION_TYPE":"U","RCS_SIZE":"LARGE","REV_AT_EPOCH":"2259","OBJECT_ID":"2023-015BA","BSTAR":"0.00013681000000","COUNTRY_CODE":"US"},{"OBJECT_NAME":"STARLINK-5365","LAUNCH_DATE":"2023-02-02","GP_ID":"234636348","DECAY_DATE":null,"SEMIMAJOR_AXIS":"6937.211","REF_FRAME":"TEME","APOAPSIS":"560.227","ELEMENT_SET_NO":"999","MEAN_ELEMENT_THEORY":"SGP4","RA_OF_ASC_NODE":"280.1334","CLASSIFICATION_TYPE":"U","RCS_SIZE":"LARGE","REV_AT_EPOCH":"2273","COUNTRY_CODE":"US","BSTAR":"0.00011574000000","OBJECT_ID":"2023-015BB","PERIOD":"95.838","OBJECT_TYPE":"PAYLOAD","INCLINATION":"43.0041","MEAN_MOTION":"15.02537647","MEAN_MOTION_DDOT":"0.0000000000000","PERIAPSIS":"557.926","MEAN_ANOMALY":"90.2752","FILE":"3946201","SITE":"AFETR","MEAN_MOTION_DOT":"0.00001360","NORAD_CAT_ID":"55498","EPOCH":"2023-06-30T15:30:20.105856","TLE_LINE2":"2 55498  43.0041 280.1334 0001659 269.7900  90.2752 15.02537647 22739","ARG_OF_PERICENTER":"269.7900","TLE_LINE1":"1 55498U 23015BB  23181.64606604  .00001360  00000-0  11574-3 0  9990","TIME_SYSTEM":"UTC","CENTER_NAME":"EARTH","ECCENTRICITY":"0.00016590","EPHEMERIS_TYPE":"0"},{"SITE":"AFETR","FILE":"3945833","PERIAPSIS":"557.803","MEAN_ANOMALY":"85.6126","CENTER_NAME":"EARTH","TIME_SYSTEM":"UTC","ECCENTRICITY":"0.00018220","EPHEMERIS_TYPE":"0","ARG_OF_PERICENTER":"274.4508","TLE_LINE1":"1 55499U 23015BC  23180.70982683  .00000836  00000-0  76949-4 0  9996","EPOCH":"2023-06-29T17:02:09.038112","TLE_LINE2":"2 55499  43.0050 285.1485 0001822 274.4508  85.6126 15.02540711 22381","MEAN_MOTION_DOT":"0.00000836","NORAD_CAT_ID":"55499","INCLINATION":"43.0050","MEAN_MOTION":"15.02540711","MEAN_MOTION_DDOT":"0.0000000000000","OBJECT_TYPE":"PAYLOAD","PERIOD":"95.838","CLASSIFICATION_TYPE":"U","RA_OF_ASC_NODE":"285.1485","BSTAR":"0.00007694900000","OBJECT_ID":"2023-015BC","COUNTRY_CODE":"US","RCS_SIZE":"LARGE","REV_AT_EPOCH":"2238","SEMIMAJOR_AXIS":"6937.202","GP_ID":"234627360","DECAY_DATE":null,"LAUNCH_DATE":"2023-02-02","OBJECT_NAME":"STARLINK-5366","MEAN_ELEMENT_THEORY":"SGP4","ELEMENT_SET_NO":"999","REF_FRAME":"TEME","APOAPSIS":"560.331"}];
